OBJECT_NAME,OBJECT_ID,EPOCH,MEAN_MOTION,ECCENTRICITY,INCLINATION,RA_OF_ASC_NODE,ARG_OF_PERICENTER,MEAN_ANOMALY,EPHEMERIS_TYPE,CLASSIFICATION_TYPE,NORAD_CAT_ID,ELEMENT_SET_NO,REV_AT_EPOCH,BSTAR,MEAN_MOTION_DOT,MEAN_MOTION_DDOT
STARLINK-30991,2023-186M,2026-05-17T02:29:09.088224,15.27559455,.0000902,43.0039,36.8965,244.9958,115.0801,0,U,58484,999,13634,-.44995E-4,-.1499E-4,0
STARLINK-30979,2023-186N,2026-05-17T01:57:53.568864,15.27558910,.0001357,43.0026,37.5971,269.5745,90.4951,0,U,58485,999,13634,-.26806E-3,-.7626E-4,0
STARLINK-31005,2023-186P,2026-05-17T03:22:48.067104,15.27569032,.0001315,43.0024,37.1803,260.1922,99.8781,0,U,58486,999,13635,-.21668E-4,-.858E-5,0
STARLINK-30987,2023-186Q,2026-05-17T03:28:19.615008,15.27586302,.0000875,43.0029,37.2058,268.9277,91.1474,0,U,58487,999,13635,.8336E-4,.2033E-4,0
STARLINK-31000,2023-186R,2026-05-16T22:29:13.070976,15.27550172,.0001237,43.0024,38.2322,254.9575,105.1140,0,U,58488,999,13632,.44253E-3,.11924E-3,0
STARLINK-30993,2023-186S,2026-05-17T00:08:55.247136,15.27557032,.0002015,43.0023,37.8882,262.7055,97.3567,0,U,58489,999,13633,-.33574E-3,-.9483E-4,0
STARLINK-30978,2023-186T,2026-05-16T23:54:08.455680,15.27564726,.0001395,43.0042,37.8168,272.7580,87.3112,0,U,58490,999,13633,-.19948E-4,-.811E-5,0
STARLINK-30953,2023-186U,2026-05-16T23:25:01.846848,15.27577484,.0000899,42.9988,241.8551,275.0842,84.9907,0,U,58491,999,13833,.49415E-4,.1098E-4,0
STARLINK-30986,2023-186V,2026-05-17T02:56:52.065312,15.27591515,.0001196,43.0034,37.0471,275.3168,84.7548,0,U,58492,999,13635,.82221E-4,.2002E-4,0
STARLINK-30985,2023-186W,2026-05-16T23:37:29.261280,15.27563897,.000271,43.0067,37.7257,259.6688,100.3859,0,U,58493,999,13633,-.445E-4,-.1487E-4,0
STARLINK-30981,2023-186X,2026-05-17T01:06:03.676896,15.27585998,.0001404,43.0055,37.3281,277.9319,82.1373,0,U,58494,999,13634,.86411E-4,.2117E-4,0
STARLINK-31002,2023-186Y,2026-05-17T02:03:28.137312,15.27566887,.0001482,43.0036,37.6184,282.0812,77.9873,0,U,58495,999,13651,-.19562E-4,-.8E-5,0
XINGCHI-1 02A,2023-187A,2026-05-17T04:38:47.920416,14.84170638,.0010324,97.9257,220.2406,242.4001,117.6165,0,U,58496,999,13252,.11125E-3,.876E-5,0
MISRSAT-2,2023-187B,2026-05-17T03:50:51.383616,14.83161157,.0009719,97.9265,219.3334,243.8113,116.2101,0,U,58497,999,13244,.9511E-4,.723E-5,0
XINGCHI-1 02B,2023-187C,2026-05-17T04:05:52.242720,14.85714099,.0009441,97.9287,221.3638,237.4593,122.5711,0,U,58498,999,13257,.10588E-3,.864E-5,0
DOORY-SAT,2023-188A,2026-05-17T04:56:55.510656,14.80540185,.0008999,46.9809,86.4808,253.1385,106.8523,0,U,58500,999,13240,.10602E-3,.615E-5,0
2023-189A,2023-189A,2026-05-17T04:19:19.286976,15.33038379,.0011486,97.4383,155.2286,20.3141,339.8555,0,U,58502,999,13646,.12354E-3,.3869E-4,0
2023-189B,2023-189B,2026-05-17T05:16:55.216128,15.94622476,.000503,97.3927,175.1992,227.4209,132.6642,0,U,58503,999,13785,.72241E-3,.272313E-2,.30774E-4
CHUANGXIN 19 (CX-19),2023-190A,2026-05-17T04:16:45.298848,13.39550033,.0001835,86.5037,343.3152,100.0293,260.1057,0,U,58505,999,12054,.77543E-4,.57E-6,0
STARLINK-31026,2023-191A,2026-05-17T04:16:54.880608,15.27600154,.0001694,43.0070,83.6413,262.8151,97.2508,0,U,58508,999,13586,.15722E-3,.4069E-4,0
STARLINK-31020,2023-191B,2026-05-16T23:17:44.466720,15.27758868,.0001928,43.0065,84.6648,303.4340,56.6327,0,U,58509,999,13583,-.14961E-2,-.4143E-3,0
STARLINK-30989,2023-191C,2026-05-17T02:51:35.464608,15.27585503,.0001041,43.0031,77.2486,260.1145,99.9590,0,U,58510,999,13596,.79E-4,.1913E-4,0
STARLINK-30968,2023-191D,2026-05-17T02:57:08.883072,15.27598505,.000127,43.0031,77.2757,266.5541,93.5166,0,U,58511,999,13593,.97031E-4,.241E-4,0
STARLINK-30982,2023-191E,2026-05-17T03:02:41.021088,15.27589624,.0000771,42.9987,77.2971,282.7029,77.3737,0,U,58512,999,13593,.3988E-4,.836E-5,0
STARLINK-30998,2023-191F,2026-05-17T04:40:33.116736,15.27583968,.0000596,43.0017,76.9564,254.3333,105.7453,0,U,58513,999,13597,.36694E-4,.748E-5,0
STARLINK-30983,2023-191G,2026-05-17T03:59:49.945056,15.27591423,.0001323,43.0035,76.7407,264.3781,95.6920,0,U,58514,999,13559,.97016E-4,.2409E-4,0
STARLINK-31017,2023-191H,2026-05-16T14:10:18.177888,15.27593604,.000118,43.0029,207.6976,267.0522,93.0194,0,U,58515,999,13856,-.39034E-4,-.1336E-4,0
STARLINK-31028,2023-191J,2026-05-17T04:53:17.686752,15.27582708,.0000586,43.0044,76.1563,264.4156,95.6629,0,U,58516,999,13595,.14836E-4,.146E-5,0
STARLINK-31011,2023-191K,2026-05-17T03:13:35.304096,15.27583051,.0000505,43.0029,76.5035,266.3824,93.6970,0,U,58517,999,13594,.24559E-4,.414E-5,0
STARLINK-31021,2023-191L,2026-05-17T02:46:02.097984,15.27584808,.0000986,43.0005,77.1924,263.3801,96.6938,0,U,58518,999,13593,.60954E-4,.1416E-4,0
