STARLINK-30991          
1 58484U 23186M   26137.10357741 -.00001499  00000+0 -44995-4 0  9995
2 58484  43.0039  36.8965 0000902 244.9958 115.0801 15.27559455136340
STARLINK-30979          
1 58485U 23186N   26137.08187001 -.00007626  00000+0 -26806-3 0  9991
2 58485  43.0026  37.5971 0001357 269.5745  90.4951 15.27558910136341
STARLINK-31005          
1 58486U 23186P   26137.14083411 -.00000858  00000+0 -21668-4 0  9991
2 58486  43.0024  37.1803 0001315 260.1922  99.8781 15.27569032136350
STARLINK-30987          
1 58487U 23186Q   26137.14467147  .00002033  00000+0  83360-4 0  9996
2 58487  43.0029  37.2058 0000875 268.9277  91.1474 15.27586302136351
STARLINK-31000          
1 58488U 23186R   26136.93695684  .00011924  00000+0  44253-3 0  9998
2 58488  43.0024  38.2322 0001237 254.9575 105.1140 15.27550172136320
STARLINK-30993          
1 58489U 23186S   26137.00619499 -.00009483  00000+0 -33574-3 0  9991
2 58489  43.0023  37.8882 0002015 262.7055  97.3567 15.27557032136339
STARLINK-30978          
1 58490U 23186T   26136.99593120 -.00000811  00000+0 -19948-4 0  9998
2 58490  43.0042  37.8168 0001395 272.7580  87.3112 15.27564726136336
STARLINK-30953          
1 58491U 23186U   26136.97571582  .00001098  00000+0  49415-4 0  9993
2 58491  42.9988 241.8551 0000899 275.0842  84.9907 15.27577484138334
STARLINK-30986          
1 58492U 23186V   26137.12282483  .00002002  00000+0  82221-4 0  9999
2 58492  43.0034  37.0471 0001196 275.3168  84.7548 15.27591515136350
STARLINK-30985          
1 58493U 23186W   26136.98436645 -.00001487  00000+0 -44500-4 0  9990
2 58493  43.0067  37.7257 0002710 259.6688 100.3859 15.27563897136331
STARLINK-30981          
1 58494U 23186X   26137.04587589  .00002117  00000+0  86411-4 0  9999
2 58494  43.0055  37.3281 0001404 277.9319  82.1373 15.27585998136340
STARLINK-31002          
1 58495U 23186Y   26137.08574233 -.00000800  00000+0 -19562-4 0  9998
2 58495  43.0036  37.6184 0001482 282.0812  77.9873 15.27566887136518
XINGCHI-1 02A           
1 58496U 23187A   26137.19361019  .00000876  00000+0  11125-3 0  9995
2 58496  97.9257 220.2406 0010324 242.4001 117.6165 14.84170638132524
MISRSAT-2               
1 58497U 23187B   26137.16031694  .00000723  00000+0  95110-4 0  9994
2 58497  97.9265 219.3334 0009719 243.8113 116.2101 14.83161157132449
XINGCHI-1 02B           
1 58498U 23187C   26137.17074355  .00000864  00000+0  10588-3 0  9998
2 58498  97.9287 221.3638 0009441 237.4593 122.5711 14.85714099132579
DOORY-SAT               
1 58500U 23188A   26137.20619804  .00000615  00000+0  10602-3 0  9992
2 58500  46.9809  86.4808 0008999 253.1385 106.8523 14.80540185132403
2023-189A               
1 58502U 23189A   26137.18008434  .00003869  00000+0  12354-3 0  9993
2 58502  97.4383 155.2286 0011486  20.3141 339.8555 15.33038379136466
2023-189B               
1 58503U 23189B   26137.22008352  .00272313  30774-4  72241-3 0  9997
2 58503  97.3927 175.1992 0005030 227.4209 132.6642 15.94622476137852
CHUANGXIN 19 (CX-19)    
1 58505U 23190A   26137.17830207  .00000057  00000+0  77543-4 0  9996
2 58505  86.5037 343.3152 0001835 100.0293 260.1057 13.39550033120542
STARLINK-31026          
1 58508U 23191A   26137.17841297  .00004069  00000+0  15722-3 0  9998
2 58508  43.0070  83.6413 0001694 262.8151  97.2508 15.27600154135867
STARLINK-31020          
1 58509U 23191B   26136.97065355 -.00041430  00000+0 -14961-2 0  9997
2 58509  43.0065  84.6648 0001928 303.4340  56.6327 15.27758868135836
STARLINK-30989          
1 58510U 23191C   26137.11916047  .00001913  00000+0  79000-4 0  9996
2 58510  43.0031  77.2486 0001041 260.1145  99.9590 15.27585503135967
STARLINK-30968          
1 58511U 23191D   26137.12301948  .00002410  00000+0  97031-4 0  9993
2 58511  43.0031  77.2757 0001270 266.5541  93.5166 15.27598505135935
STARLINK-30982          
1 58512U 23191E   26137.12686367  .00000836  00000+0  39880-4 0  9993
2 58512  42.9987  77.2971 0000771 282.7029  77.3737 15.27589624135934
STARLINK-30998          
1 58513U 23191F   26137.19482774  .00000748  00000+0  36694-4 0  9999
2 58513  43.0017  76.9564 0000596 254.3333 105.7453 15.27583968135973
STARLINK-30983          
1 58514U 23191G   26137.16655029  .00002409  00000+0  97016-4 0  9993
2 58514  43.0035  76.7407 0001323 264.3781  95.6920 15.27591423135594
STARLINK-31017          
1 58515U 23191H   26136.59048817 -.00001336  00000+0 -39034-4 0  9997
2 58515  43.0029 207.6976 0001180 267.0522  93.0194 15.27593604138566
STARLINK-31028          
1 58516U 23191J   26137.20367693  .00000146  00000+0  14836-4 0  9992
2 58516  43.0044  76.1563 0000586 264.4156  95.6629 15.27582708135952
STARLINK-31011          
1 58517U 23191K   26137.13443639  .00000414  00000+0  24559-4 0  9991
2 58517  43.0029  76.5035 0000505 266.3824  93.6970 15.27583051135946
STARLINK-31021          
1 58518U 23191L   26137.11530206  .00001416  00000+0  60954-4 0  9999
2 58518  43.0005  77.1924 0000986 263.3801  96.6938 15.27584808135937
